STARLINK-31556          
1 59544U 24074L   26068.10912643 -.00001098  00000+0 -30406-4 0  9998
2 59544  43.0011 346.9695 0000878 292.0056  68.0702 15.27569985105924
FLOCK 4G-2              
1 62661U 25009BE  26068.66207492  .00013752  00000+0  51068-3 0  9995
2 62661  97.4044 151.2221 0003181 329.2677  30.8376 15.27675260121321
